[{"OBJECT_ID":"2006-006BE","OBJECT_NAME":"BREEZE-M DEB","NORAD_CAT_ID":"34239","OBJECT_TYPE":"DEBRIS","PERIOD":"148.640","INCLINATION":"50.4286","APOGEE":"4987.078","PERIGEE":"846.753","ECCENTRICITY":"0.2227166","MEAN_MOTION":"9.68779844","TLE_LINE1":"1 34239U 06006BE  16227.24402343 +.00002375 +00000-0 +10869-1 0  9995","TLE_LINE2":"2 34239 050.4286 181.5802 2227166 193.2058 159.9542 09.68779844290173","LAUNCH_DATE":"2006-02-28","LAUNCH_SITE":"TYURATAM MISSILE AND SPACE COMPLEX","OWNER":"COMMONWEALTH OF INDEPENDENT STATES","ORBIT_TYPE":"Unclassified","OPERATIONAL_STATUS":"N/A, space debris"},{"OBJECT_ID":"2006-006BG","OBJECT_NAME":"BREEZE-M DEB","NORAD_CAT_ID":"34241","OBJECT_TYPE":"DEBRIS","PERIOD":"268.810","INCLINATION":"51.757","APOGEE":"14290.322","PERIGEE":"547.826","ECCENTRICITY":"0.4980172","MEAN_MOTION":"5.35692871","TLE_LINE1":"1 34241U 06006BG  16237.31994311 +.00000259 +00000-0 +51757-3 0  9990","TLE_LINE2":"2 34241 051.7570 217.6071 4980172 253.1797 279.1117 05.35692871063744","LAUNCH_DATE":"2006-02-28","LAUNCH_SITE":"TYURATAM MISSILE AND SPACE COMPLEX","OWNER":"COMMONWEALTH OF INDEPENDENT STATES","ORBIT_TYPE":"Highly Elliptical Orbit","OPERATIONAL_STATUS":"N/A, space debris"},{"OBJECT_ID":"2006-006BM","OBJECT_NAME":"BREEZE-M DEB","NORAD_CAT_ID":"34246","OBJECT_TYPE":"DEBRIS","PERIOD":"237.906","INCLINATION":"51.6303","APOGEE":"12238.102","PERIGEE":"442.318","ECCENTRICITY":"0.4637311","MEAN_MOTION":"6.05280731","TLE_LINE1":"1 34246U 06006BM  16238.59397920 +.00002683 +00000-0 +21477-2 0  9997","TLE_LINE2":"2 34246 051.6303 030.9485 4637311 055.9336 339.8872 06.05280731085267","LAUNCH_DATE":"2006-02-28","LAUNCH_SITE":"TYURATAM MISSILE AND SPACE COMPLEX","OWNER":"COMMONWEALTH OF INDEPENDENT STATES","ORBIT_TYPE":"Highly Elliptical Orbit","OPERATIONAL_STATUS":"N/A, space debris"},{"OBJECT_ID":"2006-006BN","OBJECT_NAME":"BREEZE-M DEB","NORAD_CAT_ID":"34247","OBJECT_TYPE":"DEBRIS","PERIOD":"266.866","INCLINATION":"52.1152","APOGEE":"14204.327","PERIGEE":"500.599","ECCENTRICITY":"0.4990215","MEAN_MOTION":"5.39595774","TLE_LINE1":"1 34247U 06006BN  16236.39597009 +.00000481 +00000-0 +75647-3 0  9997","TLE_LINE2":"2 34247 052.1152 234.3497 4990215 193.4083 345.7116 05.39595774068946","LAUNCH_DATE":"2006-02-28","LAUNCH_SITE":"TYURATAM MISSILE AND SPACE COMPLEX","OWNER":"COMMONWEALTH OF INDEPENDENT STATES","ORBIT_TYPE":"Highly Elliptical Orbit","OPERATIONAL_STATUS":"N/A, space debris"},{"OBJECT_ID":"2006-006BP","OBJECT_NAME":"BREEZE-M DEB","NORAD_CAT_ID":"34248","OBJECT_TYPE":"DEBRIS","PERIOD":"252.653","INCLINATION":"51.7009","APOGEE":"13329.568","PERIGEE":"391.462","ECCENTRICITY":"0.488649","MEAN_MOTION":"5.69950559","TLE_LINE1":"1 34248U 06006BP  16237.40718323  .00001106  00000-0  61100-3 0  9999","TLE_LINE2":"2 34248  51.7009  22.7676 4886490  48.6036 344.2197  5.69950559175388","LAUNCH_DATE":"2006-02-28","LAUNCH_SITE":"TYURATAM MISSILE AND SPACE COMPLEX","OWNER":"COMMONWEALTH OF INDEPENDENT STATES","ORBIT_TYPE":"Highly Elliptical Orbit","OPERATIONAL_STATUS":"N/A, space debris"},{"OBJECT_ID":"2006-006BR","OBJECT_NAME":"BREEZE-M DEB","NORAD_CAT_ID":"34250","OBJECT_TYPE":"DEBRIS","PERIOD":"274.507","INCLINATION":"51.6906","APOGEE":"14764.795","PERIGEE":"461.827","ECCENTRICITY":"0.5111326","MEAN_MOTION":"5.24576512","TLE_LINE1":"1 34250U 06006BR  16238.33304211  .00000446  00000-0  51267-3 0  9991","TLE_LINE2":"2 34250  51.6906 254.0227 5111326 237.0755  63.3861  5.24576512166583","LAUNCH_DATE":"2006-02-28","LAUNCH_SITE":"TYURATAM MISSILE AND SPACE COMPLEX","OWNER":"COMMONWEALTH OF INDEPENDENT STATES","ORBIT_TYPE":"Highly Elliptical Orbit","OPERATIONAL_STATUS":"N/A, space debris"},{"OBJECT_ID":"2006-006BT","OBJECT_NAME":"BREEZE-M DEB","NORAD_CAT_ID":"34252","OBJECT_TYPE":"DEBRIS","PERIOD":"275.374","INCLINATION":"51.622","APOGEE":"14834.054","PERIGEE":"451.487","ECCENTRICITY":"0.5128972","MEAN_MOTION":"5.22924065","TLE_LINE1":"1 34252U 06006BT  16238.37600164  .00000152  00000-0  12038-3 0  9990","TLE_LINE2":"2 34252  51.6220 238.5027 5128972 256.9079  43.3386  5.22924065165298","LAUNCH_DATE":"2006-02-28","LAUNCH_SITE":"TYURATAM MISSILE AND SPACE COMPLEX","OWNER":"COMMONWEALTH OF INDEPENDENT STATES","ORBIT_TYPE":"Highly Elliptical Orbit","OPERATIONAL_STATUS":"N/A, space debris"},{"OBJECT_ID":"2006-006BV","OBJECT_NAME":"BREEZE-M DEB","NORAD_CAT_ID":"34254","OBJECT_TYPE":"DEBRIS","PERIOD":"236.514","INCLINATION":"51.5867","APOGEE":"12149.993","PERIGEE":"431.157","ECCENTRICITY":"0.462511","MEAN_MOTION":"6.08841373","TLE_LINE1":"1 34254U 06006BV  16234.48455645  .00000537  00000-0  42673-3 0  9997","TLE_LINE2":"2 34254  51.5867 349.6173 4625110  81.9753 326.3366  6.08841373167965","LAUNCH_DATE":"2006-02-28","LAUNCH_SITE":"TYURATAM MISSILE AND SPACE COMPLEX","OWNER":"COMMONWEALTH OF INDEPENDENT STATES","ORBIT_TYPE":"Highly Elliptical Orbit","OPERATIONAL_STATUS":"N/A, space debris"},{"OBJECT_ID":"2006-006BX","OBJECT_NAME":"BREEZE-M DEB","NORAD_CAT_ID":"34256","OBJECT_TYPE":"DEBRIS","PERIOD":"278.656","INCLINATION":"51.9763","APOGEE":"14973.287","PERIGEE":"534.646","ECCENTRICITY":"0.5108455","MEAN_MOTION":"5.16764442","TLE_LINE1":"1 34256U 06006BX  16228.64746963  .00002234  00000-0  51749-2 0  9995","TLE_LINE2":"2 34256  51.9763  27.4706 5108455 109.5956 352.0562  5.16764442153407","LAUNCH_DATE":"2006-02-28","LAUNCH_SITE":"TYURATAM MISSILE AND SPACE COMPLEX","OWNER":"COMMONWEALTH OF INDEPENDENT STATES","ORBIT_TYPE":"Highly Elliptical Orbit","OPERATIONAL_STATUS":"N/A, space debris"},{"OBJECT_ID":"2006-006BY","OBJECT_NAME":"BREEZE-M DEB","NORAD_CAT_ID":"34257","OBJECT_TYPE":"DEBRIS","PERIOD":"276.366","INCLINATION":"52.1652","APOGEE":"14772.194","PERIGEE":"580.624","ECCENTRICITY":"0.5048748","MEAN_MOTION":"5.21047837","TLE_LINE1":"1 34257U 06006BY  16238.47982686 -.00001264  00000-0 -36914-2 0  9993","TLE_LINE2":"2 34257  52.1652 348.6171 5048748 111.3784 350.7201  5.21047837157294","LAUNCH_DATE":"2006-02-28","LAUNCH_SITE":"TYURATAM MISSILE AND SPACE COMPLEX","OWNER":"COMMONWEALTH OF INDEPENDENT STATES","ORBIT_TYPE":"Highly Elliptical Orbit","OPERATIONAL_STATUS":"N/A, space debris"},{"OBJECT_ID":"2006-006BZ","OBJECT_NAME":"BREEZE-M DEB","NORAD_CAT_ID":"34258","OBJECT_TYPE":"DEBRIS","PERIOD":"275.818","INCLINATION":"51.9477","APOGEE":"14803.754","PERIGEE":"511.942","ECCENTRICITY":"0.5091133","MEAN_MOTION":"5.22081716","TLE_LINE1":"1 34258U 06006BZ  16236.63404699  .00000319  00000-0  75691-3 0  9997","TLE_LINE2":"2 34258  51.9477 320.3640 5091133 160.1533 355.7922  5.22081716156890","LAUNCH_DATE":"2006-02-28","LAUNCH_SITE":"TYURATAM MISSILE AND SPACE COMPLEX","OWNER":"COMMONWEALTH OF INDEPENDENT STATES","ORBIT_TYPE":"Highly Elliptical Orbit","OPERATIONAL_STATUS":"N/A, space debris"},{"OBJECT_ID":"2006-006CA","OBJECT_NAME":"BREEZE-M DEB","NORAD_CAT_ID":"34259","OBJECT_TYPE":"DEBRIS","PERIOD":"283.413","INCLINATION":"50.8585","APOGEE":"14740.618","PERIGEE":"1088.041","ECCENTRICITY":"0.4776145","MEAN_MOTION":"5.08091647","TLE_LINE1":"1 34259U 06006CA  16239.18023200 -.00000025  00000-0  00000+0 0  9999","TLE_LINE2":"2 34259  50.8585 180.4474 4776145 128.6179 284.8018  5.08091647195525","LAUNCH_DATE":"2006-02-28","LAUNCH_SITE":"TYURATAM MISSILE AND SPACE COMPLEX","OWNER":"COMMONWEALTH OF INDEPENDENT STATES","ORBIT_TYPE":"Highly Elliptical Orbit","OPERATIONAL_STATUS":"N/A, space debris"},{"OBJECT_ID":"2006-006CB","OBJECT_NAME":"BREEZE-M DEB","NORAD_CAT_ID":"34260","OBJECT_TYPE":"DEBRIS","PERIOD":"269.128","INCLINATION":"51.3691","APOGEE":"14273.484","PERIGEE":"586.401","ECCENTRICITY":"0.4956187","MEAN_MOTION":"5.35060531","TLE_LINE1":"1 34260U 06006CB  16233.20106501  .00004524  00000-0  13918-1 0  9995","TLE_LINE2":"2 34260  51.3691 292.2199 4956187 175.6399 191.3426  5.35060531166812","LAUNCH_DATE":"2006-02-28","LAUNCH_SITE":"TYURATAM MISSILE AND SPACE COMPLEX","OWNER":"COMMONWEALTH OF INDEPENDENT STATES","ORBIT_TYPE":"Highly Elliptical Orbit","OPERATIONAL_STATUS":"N/A, space debris"},{"OBJECT_ID":"2006-006CE","OBJECT_NAME":"BREEZE-M DEB","NORAD_CAT_ID":"34263","OBJECT_TYPE":"DEBRIS","PERIOD":"249.422","INCLINATION":"51.7064","APOGEE":"13056.603","PERIGEE":"438.214","ECCENTRICITY":"0.4806806","MEAN_MOTION":"5.77333529","TLE_LINE1":"1 34263U 06006CE  16237.66332309  .00001720  00000-0  14635-2 0  9992","TLE_LINE2":"2 34263  51.7064  69.4575 4806806  20.5867 353.6299  5.77333529167509","LAUNCH_DATE":"2006-02-28","LAUNCH_SITE":"TYURATAM MISSILE AND SPACE COMPLEX","OWNER":"COMMONWEALTH OF INDEPENDENT STATES","ORBIT_TYPE":"Highly Elliptical Orbit","OPERATIONAL_STATUS":"N/A, space debris"},{"OBJECT_ID":"2009-010A","OBJECT_NAME":"RADUGA-1 8","NORAD_CAT_ID":"34264","OBJECT_TYPE":"PAYLOAD","PERIOD":"1442.584","INCLINATION":"5.1638","APOGEE":"35947.473","PERIGEE":"35879.519","ECCENTRICITY":"0.0008034","MEAN_MOTION":"0.99820813","TLE_LINE1":"1 34264U 09010A   16238.26150279 -.00000249  00000-0  00000+0 0  9996","TLE_LINE2":"2 34264   5.1638  71.1983 0008034 297.2545 349.0917  0.99820813 27408","LAUNCH_DATE":"2009-02-28","LAUNCH_SITE":"TYURATAM MISSILE AND SPACE COMPLEX","OWNER":"COMMONWEALTH OF INDEPENDENT STATES","ORBIT_TYPE":"Geosynchronous","OPERATIONAL_STATUS":"Nonoperational"},{"OBJECT_ID":"2009-010B","OBJECT_NAME":"SL-12 R/B(2)","NORAD_CAT_ID":"34265","OBJECT_TYPE":"ROCKET BODY","PERIOD":"1439.776","INCLINATION":"5.1669","APOGEE":"35876.566","PERIGEE":"35840.623","ECCENTRICITY":"0.0004255","MEAN_MOTION":"1.00015504","TLE_LINE1":"1 34265U 09010B   16238.73774486 +.00000015 +00000-0 +00000-0 0  9992","TLE_LINE2":"2 34265 005.1669 071.4344 0004255 168.2919 013.3014 01.00015504027360","LAUNCH_DATE":"2009-02-28","LAUNCH_SITE":"TYURATAM MISSILE AND SPACE COMPLEX","OWNER":"COMMONWEALTH OF INDEPENDENT STATES","ORBIT_TYPE":"Geosynchronous","OPERATIONAL_STATUS":"N/A, derelict rocket body"}]